{
  "type": "FeatureCollection",
  "features": [
    {
      "type": "Feature",
      "properties": {
        "norad_id": 40894,
        "name": "GAOFEN-9 01",
        "group": "resource",
        "lat": 74.3060065326416,
        "lon": -131.573576474823,
        "alt_km": 601.690437308117,
        "timestamp": "2025-12-06T14:35:36.784710+00:00",
        "meta_object_name": "GAOFEN-9 01",
        "meta_object_id": "2015-047A",
        "meta_epoch": "2025-12-06T06:01:47.201664",
        "meta_mean_motion": 14.82397843,
        "meta_eccentricity": 0.00288181,
        "meta_inclination": 97.6547,
        "meta_ra_of_asc_node": 19.4871,
        "meta_arg_of_pericenter": 54.8237,
        "meta_mean_anomaly": 305.567,
        "meta_ephemeris_type": 0,
        "meta_classification_type": "U",
        "meta_norad_cat_id": 40894,
        "meta_element_set_no": 999,
        "meta_rev_at_epoch": 55160,
        "meta_bstar": 0.00032536853,
        "meta_mean_motion_dot": 2.574e-05,
        "meta_mean_motion_ddot": 0,
        "tle_line1": "1 40894U 15047A   25340.25124076  .00002574  00000+0  32537-3 0  9993",
        "tle_line2": "2 40894  97.6547  19.4871 0028818  54.8237 305.5670 14.82397843551603"
      },
      "geometry": {
        "type": "Point",
        "coordinates": [
          -131.573576474823,
          74.3060065326416
        ]
      }
    },
    {
      "type": "Feature",
      "properties": {
        "norad_id": 41026,
        "name": "YAOGAN-28",
        "group": "resource",
        "lat": 51.504897958525206,
        "lon": 109.32371821734577,
        "alt_km": 489.0505660677791,
        "timestamp": "2025-12-06T14:35:36.784720+00:00",
        "meta_object_name": "YAOGAN-28",
        "meta_object_id": "2015-064A",
        "meta_epoch": "2025-12-06T08:03:46.987200",
        "meta_mean_motion": 15.24191416,
        "meta_eccentricity": 0.00120475,
        "meta_inclination": 97.2807,
        "meta_ra_of_asc_node": 118.3103,
        "meta_arg_of_pericenter": 147.1879,
        "meta_mean_anomaly": 213.0109,
        "meta_ephemeris_type": 0,
        "meta_classification_type": "U",
        "meta_norad_cat_id": 41026,
        "meta_element_set_no": 999,
        "meta_rev_at_epoch": 56127,
        "meta_bstar": 0.0006676915,
        "meta_mean_motion_dot": 0.00016248,
        "meta_mean_motion_ddot": 0,
        "tle_line1": "1 41026U 15064A   25340.33596050  .00016248  00000+0  66769-3 0  9991",
        "tle_line2": "2 41026  97.2807 118.3103 0012047 147.1879 213.0109 15.24191416561277"
      },
      "geometry": {
        "type": "Point",
        "coordinates": [
          109.32371821734577,
          51.504897958525206
        ]
      }
    },
    {
      "type": "Feature",
      "properties": {
        "norad_id": 41038,
        "name": "YAOGAN-29",
        "group": "resource",
        "lat": -19.11197404806468,
        "lon": 6.561159513363341,
        "alt_km": 625.0479731415962,
        "timestamp": "2025-12-06T14:35:36.784731+00:00",
        "meta_object_name": "YAOGAN-29",
        "meta_object_id": "2015-069A",
        "meta_epoch": "2025-12-06T06:34:59.105280",
        "meta_mean_motion": 14.82871965,
        "meta_eccentricity": 5.335e-05,
        "meta_inclination": 98.0224,
        "meta_ra_of_asc_node": 3.4251,
        "meta_arg_of_pericenter": 358.1959,
        "meta_mean_anomaly": 1.9252,
        "meta_ephemeris_type": 0,
        "meta_classification_type": "U",
        "meta_norad_cat_id": 41038,
        "meta_element_set_no": 999,
        "meta_rev_at_epoch": 54203,
        "meta_bstar": 0.0001264384,
        "meta_mean_motion_dot": 9.7e-06,
        "meta_mean_motion_ddot": 0,
        "tle_line1": "1 41038U 15069A   25340.27429520  .00000970  00000+0  12644-3 0  9997",
        "tle_line2": "2 41038  98.0224   3.4251 0000533 358.1959   1.9252 14.82871965542033"
      },
      "geometry": {
        "type": "Point",
        "coordinates": [
          6.561159513363341,
          -19.11197404806468
        ]
      }
    },
    {
      "type": "Feature",
      "properties": {
        "norad_id": 41167,
        "name": "KENT RIDGE 1",
        "group": "resource",
        "lat": -4.487670025417076,
        "lon": -120.4242397888593,
        "alt_km": 496.0882872690754,
        "timestamp": "2025-12-06T14:35:36.784741+00:00",
        "meta_object_name": "KENT RIDGE 1",
        "meta_object_id": "2015-077B",
        "meta_epoch": "2025-12-06T00:30:39.133728",
        "meta_mean_motion": 15.21554982,
        "meta_eccentricity": 0.00086098,
        "meta_inclination": 14.9799,
        "meta_ra_of_asc_node": 260.9929,
        "meta_arg_of_pericenter": 35.4877,
        "meta_mean_anomaly": 324.6017,
        "meta_ephemeris_type": 0,
        "meta_classification_type": "U",
        "meta_norad_cat_id": 41167,
        "meta_element_set_no": 999,
        "meta_rev_at_epoch": 55161,
        "meta_bstar": 0.00028434747,
        "meta_mean_motion_dot": 7.37e-05,
        "meta_mean_motion_ddot": 0,
        "tle_line1": "1 41167U 15077B   25340.02128627  .00007370  00000+0  28435-3 0  9992",
        "tle_line2": "2 41167  14.9799 260.9929 0008609  35.4877 324.6017 15.21554982551617"
      },
      "geometry": {
        "type": "Point",
        "coordinates": [
          -120.4242397888593,
          -4.487670025417076
        ]
      }
    },
    {
      "type": "Feature",
      "properties": {
        "norad_id": 41194,
        "name": "GAOFEN-4",
        "group": "resource",
        "lat": -0.07470841856947619,
        "lon": 40.21788750986783,
        "alt_km": 35798.7467722809,
        "timestamp": "2025-12-06T14:35:36.784754+00:00",
        "meta_object_name": "GAOFEN-4",
        "meta_object_id": "2015-083A",
        "meta_epoch": "2025-12-06T07:19:11.046144",
        "meta_mean_motion": 1.00272244,
        "meta_eccentricity": 0.0003629,
        "meta_inclination": 0.1532,
        "meta_ra_of_asc_node": 80.9473,
        "meta_arg_of_pericenter": 105.7587,
        "meta_mean_anomaly": 104.1394,
        "meta_ephemeris_type": 0,
        "meta_classification_type": "U",
        "meta_norad_cat_id": 41194,
        "meta_element_set_no": 999,
        "meta_rev_at_epoch": 3659,
        "meta_bstar": 0,
        "meta_mean_motion_dot": -3.27e-06,
        "meta_mean_motion_ddot": 0,
        "tle_line1": "1 41194U 15083A   25340.30498896 -.00000327  00000+0  00000+0 0  9998",
        "tle_line2": "2 41194   0.1532  80.9473 0003629 105.7587 104.1394  1.00272244 36593"
      },
      "geometry": {
        "type": "Point",
        "coordinates": [
          40.21788750986783,
          -0.07470841856947619
        ]
      }
    },
    {
      "type": "Feature",
      "properties": {
        "norad_id": 41240,
        "name": "JASON-3",
        "group": "resource",
        "lat": -26.15842092832529,
        "lon": 158.100821709033,
        "alt_km": 1312.951506022432,
        "timestamp": "2025-12-06T14:35:36.784764+00:00",
        "meta_object_name": "JASON-3",
        "meta_object_id": "2016-002A",
        "meta_epoch": "2025-12-06T07:17:11.751936",
        "meta_mean_motion": 12.87626244,
        "meta_eccentricity": 0.000713,
        "meta_inclination": 66.0391,
        "meta_ra_of_asc_node": 171.3558,
        "meta_arg_of_pericenter": 270.4488,
        "meta_mean_anomaly": 89.5713,
        "meta_ephemeris_type": 0,
        "meta_classification_type": "U",
        "meta_norad_cat_id": 41240,
        "meta_element_set_no": 999,
        "meta_rev_at_epoch": 46241,
        "meta_bstar": 0.0001344931,
        "meta_mean_motion_dot": -2.8e-07,
        "meta_mean_motion_ddot": 0,
        "tle_line1": "1 41240U 16002A   25340.30360824 -.00000028  00000+0  13449-3 0  9994",
        "tle_line2": "2 41240  66.0391 171.3558 0007130 270.4488  89.5713 12.87626244462414"
      },
      "geometry": {
        "type": "Point",
        "coordinates": [
          158.100821709033,
          -26.15842092832529
        ]
      }
    },
    {
      "type": "Feature",
      "properties": {
        "norad_id": 41335,
        "name": "SENTINEL-3A",
        "group": "resource",
        "lat": -17.080759640299046,
        "lon": -136.96480348765746,
        "alt_km": 807.6886239366477,
        "timestamp": "2025-12-06T14:35:36.784775+00:00",
        "meta_object_name": "SENTINEL-3A",
        "meta_object_id": "2016-011A",
        "meta_epoch": "2025-12-06T06:56:23.833536",
        "meta_mean_motion": 14.26742953,
        "meta_eccentricity": 9.709e-05,
        "meta_inclination": 98.6215,
        "meta_ra_of_asc_node": 45.3931,
        "meta_arg_of_pericenter": 92.1992,
        "meta_mean_anomaly": 267.9299,
        "meta_ephemeris_type": 0,
        "meta_classification_type": "U",
        "meta_norad_cat_id": 41335,
        "meta_element_set_no": 999,
        "meta_rev_at_epoch": 51055,
        "meta_bstar": 0.00015146167,
        "meta_mean_motion_dot": 3.23e-06,
        "meta_mean_motion_ddot": 0,
        "tle_line1": "1 41335U 16011A   25340.28916474  .00000323  00000+0  15146-3 0  9997",
        "tle_line2": "2 41335  98.6215  45.3931 0000970  92.1992 267.9299 14.26742953510555"
      },
      "geometry": {
        "type": "Point",
        "coordinates": [
          -136.96480348765746,
          -17.080759640299046
        ]
      }
    }
  ]
}